ONEWEB-0158             
1 48054U 21025N   24191.21099837  .00000338  00000+0  89102-3 0  9993
2 48054  87.8928 101.1291 0002065  80.7100 279.4262 13.13469937160699
ONEWEB-0157             
1 48055U 21025P   24191.15860723 -.00000172  00000+0 -50661-3 0  9993
2 48055  87.8926 101.1543 0001802  81.9271 278.2062 13.13468023160632
ONEWEB-0162             
1 48056U 21025Q   24191.19829663  .00000404  00000+0  10714-2 0  9996
2 48056  87.8925 101.1418 0001942  79.5953 280.5395 13.13469027160582
ONEWEB-0149             
1 48058U 21025S   24191.16337106 -.00000214  00000+0 -62213-3 0  9994
2 48058  87.8926 101.1555 0001962  85.1637 274.9716 13.13468305160550
ONEWEB-0148             
1 48059U 21025T   24191.20465475  .00000451  00000+0  12008-2 0  9998
2 48059  87.8930 101.1584 0001807  98.4149 261.7185 13.13469606160673
ONEWEB-0160             
1 48060U 21025U   24191.14434017  .00000117  00000+0  28534-3 0  9992
2 48060  87.8931 101.1666 0002913  75.7206 284.4247 13.13469924160616
ONEWEB-0163             
1 48061U 21025V   24190.82534033  .00000400  00000+0  10593-2 0  9996
2 48061  87.8928 101.2219 0001645  78.9410 281.1904 13.13468885160698
